GPS BIIR-2  (PRN 13)    
1 24876C 97035A   20284.82645833 -.00000000  00000-0  00000-0 0  2844
2 24876  55.4574 179.6528 0044364  58.4545  97.3513  2.00561841    15
GPS BIIR-3  (PRN 11)    
1 25933C 99055A   20284.82645833 -.00000000  00000-0  00000-0 0  2843
2 25933  52.3487  25.0438 0156104 118.0077 337.4582  2.00557491    12
GPS BIIR-4  (PRN 20)    
1 26360C 00025A   20284.82645833 -.00000000  00000-0  00000-0 0  2847
2 26360  53.6000 104.3697 0056272 158.1624 337.5234  2.00564747    15
GPS BIIR-5  (PRN 28)    
1 26407C 00040A   20284.82645833  .00000000  00000-0  00000-0 0  2845
2 26407  55.9105 297.6172 0186532 280.3100 176.9974  2.00564568    19
GPS BIIR-8  (PRN 16)    
1 27663C 03005A   20284.82645833  .00000000  00000-0  00000-0 0  2844
2 27663  55.9650 297.4083 0114566  35.0188 185.0987  2.00574184    17
GPS BIIR-9  (PRN 21)    
1 27704C 03010A   20284.82645833 -.00000000  00000-0  00000-0 0  2847
2 27704  54.7054  48.2944 0240488 286.4396 174.4252  2.00406953    17
GPS BIIR-10 (PRN 22)    
1 28129C 03058A   20284.82645833 -.00000000  00000-0  00000-0 0  2841
2 28129  53.4101 107.0634 0069135 297.1165  77.4155  2.00558961    10
GPS BIIR-11 (PRN 19)    
1 28190C 04009A   20284.82645833  .00000000  00000-0  00000-0 0  2845
2 28190  56.2546 358.2310 0089472  99.5425 274.6915  2.00560562    17
GPS BIIR-13 (PRN 02)    
1 28474C 04045A   20284.82645833 -.00000000  00000-0  00000-0 0  2841
2 28474  55.0466  48.2084 0201577 268.3102  21.1268  2.00549554    18
GPS BIIRM-1 (PRN 17)    
1 28874C 05038A   20284.82645833  .00000000  00000-0  00000-0 0  2847
2 28874  56.3509 355.6281 0137763 266.5655 126.0772  2.00553104    17
GPS BIIRM-2 (PRN 31)    
1 29486C 06042A   20284.82645833  .00000000  00000-0  00000-0 0  2843
2 29486  54.8326 233.7683 0097178   8.5641 311.2506  2.00563505    12
GPS BIIRM-3 (PRN 12)    
1 29601C 06052A   20284.82645833  .00000000  00000-0  00000-0 0  2843
2 29601  55.9551 296.3291 0076979  66.2470 290.8802  2.00570231    15
GPS BIIRM-4 (PRN 15)    
1 32260C 07047A   20284.82645833 -.00000000  00000-0  00000-0 0  2844
2 32260  53.1965 166.0131 0127071  52.6719  82.6027  2.00553226    11
GPS BIIRM-5 (PRN 29)    
1 32384C 07062A   20284.82645833  .00000000  00000-0  00000-0 0  2847
2 32384  56.4501 356.3156 0013883 135.5293 129.8008  2.00556520    17
GPS BIIRM-6 (PRN 07)    
1 32711C 08012A   20284.82645833  .00000000  00000-0  00000-0 0  2847
2 32711  54.5813 232.8452 0144034 225.2740 328.9325  2.00567365    13
GPS BIIRM-8 (PRN 05)    
1 35752C 09043A   20284.82645833 -.00000000  00000-0  00000-0 0  2841
2 35752  54.6538 110.3617 0059446  49.0560 175.7088  2.00555160    17
GPS BIIF-1  (PRN 25)    
1 36585C 10022A   20284.82645833  .00000000  00000-0  00000-0 0  2844
2 36585  55.2292 292.2819 0089849  52.4590 275.9769  2.00557644    19
GPS BIIF-2  (PRN 01)    
1 37753C 11036A   20284.82645833 -.00000000  00000-0  00000-0 0  2849
2 37753  56.2563  52.7390 0099322  46.5715   9.7089  2.00560996    14
GPS BIIF-3  (PRN 24)    
1 38833C 12053A   20284.82645833  .00000000  00000-0  00000-0 0  2848
2 38833  53.6251 228.5808 0101076  38.1486  27.9682  2.00567591    17
GPS BIIF-4  (PRN 27)    
1 39166C 13023A   20284.82645833  .00000000  00000-0  00000-0 0  2846
2 39166  56.0072 352.2325 0082644  31.4607 135.0324  2.00564248    14
GPS BIIF-5  (PRN 30)    
1 39533C 14008A   20284.82645833  .00000000  00000-0  00000-0 0  2848
2 39533  53.7375 234.0262 0048544 201.6211 325.9150  2.00573687    16
GPS BIIF-6  (PRN 06)    
1 39741C 14026A   20284.82645833 -.00000000  00000-0  00000-0 0  2840
2 39741  56.2289  52.2662 0020666 291.5512  34.1976  2.00568967    10
GPS BIIF-7  (PRN 09)    
1 40105C 14045A   20284.82645833 -.00000000  00000-0  00000-0 0  2847
2 40105  54.5963 171.3445 0016374 101.8888 156.7781  2.00567452    11
GPS BIIF-8  (PRN 03)    
1 40294C 14068A   20284.82645833 -.00000000  00000-0  00000-0 0  2841
2 40294  55.4029 112.2961 0030939  47.9463 304.3490  2.00557036    17
GPS BIIF-9  (PRN 26)    
1 40534C 15013A   20284.82645833  .00000000  00000-0  00000-0 0  2848
2 40534  54.1413 290.1142 0050254   8.7662 246.3984  2.00561333    10
GPS BIIF-10 (PRN 08)    
1 40730C 15033A   20284.82645833  .00000000  00000-0  00000-0 0  2848
2 40730  55.5212 351.3510 0055696 353.5731 143.6625  2.00557036    18
GPS BIIF-11 (PRN 10)    
1 41019C 15062A   20284.82645833 -.00000000  00000-0  00000-0 0  2842
2 41019  55.3984 112.1251 0060851 209.2195 252.8840  2.00564348    14
GPS BIIF-12 (PRN 32)    
1 41328C 16007A   20284.82645833 -.00000000  00000-0  00000-0 0  2845
2 41328  54.8296 171.8608 0043253 221.9512 170.8147  2.00573195    15
GPS BIII-1  (PRN 04)    
1 43873C 18109A   20284.82645833 -.00000000  00000-0  00000-0 0  2847
2 43873  55.0106 174.1517 0009152 205.7224  83.7904  2.00569408    15
GPS BIII-2  (PRN 18)    
1 44506C 19056A   20284.82645833 -.00000000  00000-0  00000-0 0  2843
2 44506  55.3184  53.6086 0010421 173.4756  17.2521  2.00559532    16
GPS BIII-3  (PRN 23)    
1 45854C 20041A   20284.82645833 -.00000000  00000-0  00000-0 0  2846
2 45854  55.1080 110.8498 0008550 118.0907  10.2894  2.00569812    10
